[{"OBJECT_NAME":"QIANFAN-86","OBJECT_ID":"2025-046P","EPOCH":"2026-03-03T15:44:16.039680","MEAN_MOTION":13.51000854,"ECCENTRICITY":0.00092843,"INCLINATION":88.9766,"RA_OF_ASC_NODE":311.4286,"ARG_OF_PERICENTER":259.229,"MEAN_ANOMALY":100.7817,"EPHEMERIS_TYPE":0,"CLASSIFICATION_TYPE":"U","NORAD_CAT_ID":63172,"ELEMENT_SET_NO":999,"REV_AT_EPOCH":5847,"BSTAR":0.00028117467,"MEAN_MOTION_DOT":1.94e-6,"MEAN_MOTION_DDOT":0},{"OBJECT_NAME":"QIANFAN-87","OBJECT_ID":"2025-046Q","EPOCH":"2026-03-03T15:02:55.575168","MEAN_MOTION":13.5100911,"ECCENTRICITY":0.00099484,"INCLINATION":88.9762,"RA_OF_ASC_NODE":311.5401,"ARG_OF_PERICENTER":253.3364,"MEAN_ANOMALY":106.6695,"EPHEMERIS_TYPE":0,"CLASSIFICATION_TYPE":"U","NORAD_CAT_ID":63173,"ELEMENT_SET_NO":999,"REV_AT_EPOCH":5840,"BSTAR":0.00026829233,"MEAN_MOTION_DOT":1.85e-6,"MEAN_MOTION_DDOT":0},{"OBJECT_NAME":"QIANFAN-88","OBJECT_ID":"2025-046R","EPOCH":"2026-03-03T15:26:24.487008","MEAN_MOTION":13.50997475,"ECCENTRICITY":0.00103576,"INCLINATION":88.9765,"RA_OF_ASC_NODE":311.495,"ARG_OF_PERICENTER":262.977,"MEAN_ANOMALY":97.0203,"EPHEMERIS_TYPE":0,"CLASSIFICATION_TYPE":"U","NORAD_CAT_ID":63174,"ELEMENT_SET_NO":999,"REV_AT_EPOCH":5843,"BSTAR":0.0002709306,"MEAN_MOTION_DOT":1.87e-6,"MEAN_MOTION_DDOT":0},{"OBJECT_NAME":"QIANFAN-89","OBJECT_ID":"2025-046S","EPOCH":"2026-03-03T14:33:19.848672","MEAN_MOTION":13.51008032,"ECCENTRICITY":0.00148233,"INCLINATION":88.9765,"RA_OF_ASC_NODE":311.6879,"ARG_OF_PERICENTER":251.9628,"MEAN_ANOMALY":107.9908,"EPHEMERIS_TYPE":0,"CLASSIFICATION_TYPE":"U","NORAD_CAT_ID":63175,"ELEMENT_SET_NO":999,"REV_AT_EPOCH":5832,"BSTAR":0.00027295351,"MEAN_MOTION_DOT":1.88e-6,"MEAN_MOTION_DDOT":0},{"OBJECT_NAME":"QIANFAN-90","OBJECT_ID":"2025-046T","EPOCH":"2026-03-03T15:14:51.223776","MEAN_MOTION":13.51007815,"ECCENTRICITY":0.00117688,"INCLINATION":88.9765,"RA_OF_ASC_NODE":311.6574,"ARG_OF_PERICENTER":250.0053,"MEAN_ANOMALY":109.9831,"EPHEMERIS_TYPE":0,"CLASSIFICATION_TYPE":"U","NORAD_CAT_ID":63176,"ELEMENT_SET_NO":999,"REV_AT_EPOCH":5834,"BSTAR":0.00028817582,"MEAN_MOTION_DOT":1.98e-6,"MEAN_MOTION_DDOT":0},{"OBJECT_NAME":"QIANFAN-91","OBJECT_ID":"2025-233A","EPOCH":"2026-03-03T14:15:03.162240","MEAN_MOTION":13.5100441,"ECCENTRICITY":0.0001908,"INCLINATION":88.9926,"RA_OF_ASC_NODE":53.8672,"ARG_OF_PERICENTER":92.8381,"MEAN_ANOMALY":267.2989,"EPHEMERIS_TYPE":0,"CLASSIFICATION_TYPE":"U","NORAD_CAT_ID":66033,"ELEMENT_SET_NO":999,"REV_AT_EPOCH":1892,"BSTAR":5.3680222e-5,"MEAN_MOTION_DOT":4.7e-7,"MEAN_MOTION_DDOT":0},{"OBJECT_NAME":"QIANFAN-92","OBJECT_ID":"2025-233B","EPOCH":"2026-03-03T14:26:48.950016","MEAN_MOTION":13.5100579,"ECCENTRICITY":0.00019457,"INCLINATION":88.991,"RA_OF_ASC_NODE":53.8553,"ARG_OF_PERICENTER":86.2638,"MEAN_ANOMALY":273.8736,"EPHEMERIS_TYPE":0,"CLASSIFICATION_TYPE":"U","NORAD_CAT_ID":66034,"ELEMENT_SET_NO":999,"REV_AT_EPOCH":1892,"BSTAR":8.5645433e-5,"MEAN_MOTION_DOT":6.7e-7,"MEAN_MOTION_DDOT":0},{"OBJECT_NAME":"QIANFAN-93","OBJECT_ID":"2025-233C","EPOCH":"2026-03-03T14:38:40.142112","MEAN_MOTION":13.51004818,"ECCENTRICITY":0.00018984,"INCLINATION":88.9937,"RA_OF_ASC_NODE":53.8777,"ARG_OF_PERICENTER":90.7707,"MEAN_ANOMALY":269.3662,"EPHEMERIS_TYPE":0,"CLASSIFICATION_TYPE":"U","NORAD_CAT_ID":66035,"ELEMENT_SET_NO":999,"REV_AT_EPOCH":1892,"BSTAR":5.3639151e-5,"MEAN_MOTION_DOT":4.7e-7,"MEAN_MOTION_DDOT":0},{"OBJECT_NAME":"QIANFAN-94","OBJECT_ID":"2025-233D","EPOCH":"2026-03-03T14:20:38.268960","MEAN_MOTION":13.50991773,"ECCENTRICITY":0.00020383,"INCLINATION":88.9933,"RA_OF_ASC_NODE":53.7859,"ARG_OF_PERICENTER":88.4731,"MEAN_ANOMALY":271.6653,"EPHEMERIS_TYPE":0,"CLASSIFICATION_TYPE":"U","NORAD_CAT_ID":66036,"ELEMENT_SET_NO":999,"REV_AT_EPOCH":1897,"BSTAR":2.7443225e-5,"MEAN_MOTION_DOT":3.0e-7,"MEAN_MOTION_DDOT":0},{"OBJECT_NAME":"QIANFAN-95","OBJECT_ID":"2025-233E","EPOCH":"2026-03-03T14:32:34.518912","MEAN_MOTION":13.51015265,"ECCENTRICITY":0.00020358,"INCLINATION":88.9931,"RA_OF_ASC_NODE":53.3313,"ARG_OF_PERICENTER":94.0222,"MEAN_ANOMALY":266.1162,"EPHEMERIS_TYPE":0,"CLASSIFICATION_TYPE":"U","NORAD_CAT_ID":66037,"ELEMENT_SET_NO":999,"REV_AT_EPOCH":1922,"BSTAR":8.4290717e-5,"MEAN_MOTION_DOT":6.6e-7,"MEAN_MOTION_DDOT":0},{"OBJECT_NAME":"QIANFAN-96","OBJECT_ID":"2025-233F","EPOCH":"2026-03-03T13:21:42.488064","MEAN_MOTION":13.51004557,"ECCENTRICITY":0.00019144,"INCLINATION":88.9928,"RA_OF_ASC_NODE":53.8824,"ARG_OF_PERICENTER":94.6627,"MEAN_ANOMALY":265.4743,"EPHEMERIS_TYPE":0,"CLASSIFICATION_TYPE":"U","NORAD_CAT_ID":66038,"ELEMENT_SET_NO":999,"REV_AT_EPOCH":1891,"BSTAR":3.3913104e-5,"MEAN_MOTION_DOT":3.4e-7,"MEAN_MOTION_DDOT":0},{"OBJECT_NAME":"QIANFAN-97","OBJECT_ID":"2025-233G","EPOCH":"2026-03-03T14:44:38.239872","MEAN_MOTION":13.51003987,"ECCENTRICITY":0.00019234,"INCLINATION":88.9932,"RA_OF_ASC_NODE":53.8572,"ARG_OF_PERICENTER":92.1142,"MEAN_ANOMALY":268.0229,"EPHEMERIS_TYPE":0,"CLASSIFICATION_TYPE":"U","NORAD_CAT_ID":66039,"ELEMENT_SET_NO":999,"REV_AT_EPOCH":1893,"BSTAR":1.8999602e-5,"MEAN_MOTION_DOT":2.4e-7,"MEAN_MOTION_DDOT":0},{"OBJECT_NAME":"QIANFAN-98","OBJECT_ID":"2025-233H","EPOCH":"2026-03-03T14:56:24.779328","MEAN_MOTION":13.51004416,"ECCENTRICITY":0.00024421,"INCLINATION":88.9921,"RA_OF_ASC_NODE":53.5987,"ARG_OF_PERICENTER":86.3012,"MEAN_ANOMALY":273.8418,"EPHEMERIS_TYPE":0,"CLASSIFICATION_TYPE":"U","NORAD_CAT_ID":66040,"ELEMENT_SET_NO":999,"REV_AT_EPOCH":1907,"BSTAR":2.8107225e-5,"MEAN_MOTION_DOT":3.0e-7,"MEAN_MOTION_DDOT":0},{"OBJECT_NAME":"QIANFAN-99","OBJECT_ID":"2025-233J","EPOCH":"2026-03-03T13:15:45.353664","MEAN_MOTION":13.51004752,"ECCENTRICITY":0.00023125,"INCLINATION":88.9932,"RA_OF_ASC_NODE":53.8667,"ARG_OF_PERICENTER":90.2082,"MEAN_ANOMALY":269.9335,"EPHEMERIS_TYPE":0,"CLASSIFICATION_TYPE":"U","NORAD_CAT_ID":66041,"ELEMENT_SET_NO":999,"REV_AT_EPOCH":1892,"BSTAR":4.4191929e-5,"MEAN_MOTION_DOT":4.1e-7,"MEAN_MOTION_DDOT":0},{"OBJECT_NAME":"QIANFAN-100","OBJECT_ID":"2025-233K","EPOCH":"2026-03-03T14:50:31.042176","MEAN_MOTION":13.51005609,"ECCENTRICITY":0.00019004,"INCLINATION":88.9943,"RA_OF_ASC_NODE":53.7752,"ARG_OF_PERICENTER":91.3299,"MEAN_ANOMALY":268.8069,"EPHEMERIS_TYPE":0,"CLASSIFICATION_TYPE":"U","NORAD_CAT_ID":66042,"ELEMENT_SET_NO":999,"REV_AT_EPOCH":1898,"BSTAR":8.8117886e-5,"MEAN_MOTION_DOT":6.9e-7,"MEAN_MOTION_DDOT":0},{"OBJECT_NAME":"QIANFAN-101","OBJECT_ID":"2025-233L","EPOCH":"2026-03-03T12:48:39.373056","MEAN_MOTION":14.26731574,"ECCENTRICITY":0.0016712,"INCLINATION":88.9933,"RA_OF_ASC_NODE":52.6948,"ARG_OF_PERICENTER":125.0226,"MEAN_ANOMALY":235.2539,"EPHEMERIS_TYPE":0,"CLASSIFICATION_TYPE":"U","NORAD_CAT_ID":66043,"ELEMENT_SET_NO":999,"REV_AT_EPOCH":1956,"BSTAR":0.00026625648,"MEAN_MOTION_DOT":6.6e-6,"MEAN_MOTION_DDOT":0},{"OBJECT_NAME":"QIANFAN-102","OBJECT_ID":"2025-233M","EPOCH":"2026-03-03T13:33:16.538400","MEAN_MOTION":13.50992341,"ECCENTRICITY":0.00020724,"INCLINATION":88.993,"RA_OF_ASC_NODE":53.7776,"ARG_OF_PERICENTER":88.8094,"MEAN_ANOMALY":271.3295,"EPHEMERIS_TYPE":0,"CLASSIFICATION_TYPE":"U","NORAD_CAT_ID":66044,"ELEMENT_SET_NO":999,"REV_AT_EPOCH":1897,"BSTAR":3.2170094e-5,"MEAN_MOTION_DOT":3.3e-7,"MEAN_MOTION_DDOT":0}]
