QIANFAN-86              
1 63172U 25046P   26062.65574120  .00000194  00000+0  28117-3 0  9997
2 63172  88.9766 311.4286 0009284 259.2290 100.7817 13.51000854 58477
QIANFAN-87              
1 63173U 25046Q   26062.62703212  .00000185  00000+0  26829-3 0  9999
2 63173  88.9762 311.5401 0009948 253.3364 106.6695 13.51009110 58404
QIANFAN-88              
1 63174U 25046R   26062.64333897  .00000187  00000+0  27093-3 0  9996
2 63174  88.9765 311.4950 0010357 262.9770  97.0203 13.50997475 58439
QIANFAN-89              
1 63175U 25046S   26062.60647973  .00000188  00000+0  27295-3 0  9991
2 63175  88.9765 311.6879 0014823 251.9628 107.9908 13.51008032 58328
QIANFAN-90              
1 63176U 25046T   26062.63531509  .00000198  00000+0  28818-3 0  9995
2 63176  88.9765 311.6574 0011768 250.0053 109.9831 13.51007815 58345
QIANFAN-91              
1 66033U 25233A   26062.59378660  .00000047  00000+0  53680-4 0  9999
2 66033  88.9926  53.8672 0001908  92.8381 267.2989 13.51004410 18924
QIANFAN-92              
1 66034U 25233B   26062.60195544  .00000067  00000+0  85645-4 0  9998
2 66034  88.9910  53.8553 0001945  86.2638 273.8736 13.51005790 18924
QIANFAN-93              
1 66035U 25233C   26062.61018683  .00000047  00000+0  53639-4 0  9994
2 66035  88.9937  53.8777 0001898  90.7707 269.3662 13.51004818 18924
QIANFAN-94              
1 66036U 25233D   26062.59766515  .00000030  00000+0  27443-4 0  9992
2 66036  88.9933  53.7859 0002038  88.4731 271.6653 13.50991773 18974
QIANFAN-95              
1 66037U 25233E   26062.60595508  .00000066  00000+0  84291-4 0  9990
2 66037  88.9931  53.3313 0002035  94.0222 266.1162 13.51015265 19226
QIANFAN-96              
1 66038U 25233F   26062.55674176  .00000034  00000+0  33913-4 0  9994
2 66038  88.9928  53.8824 0001914  94.6627 265.4743 13.51004557 18919
QIANFAN-97              
1 66039U 25233G   26062.61433148  .00000024  00000+0  19000-4 0  9994
2 66039  88.9932  53.8572 0001923  92.1142 268.0229 13.51003987 18936
QIANFAN-98              
1 66040U 25233H   26062.62250902  .00000030  00000+0  28107-4 0  9997
2 66040  88.9921  53.5987 0002442  86.3012 273.8418 13.51004416 19079
QIANFAN-99              
1 66041U 25233J   26062.55260826  .00000041  00000+0  44192-4 0  9990
2 66041  88.9932  53.8667 0002312  90.2082 269.9335 13.51004752 18927
QIANFAN-100             
1 66042U 25233K   26062.61841484  .00000069  00000+0  88118-4 0  9999
2 66042  88.9943  53.7752 0001900  91.3299 268.8069 13.51005609 18988
QIANFAN-101             
1 66043U 25233L   26062.53378904  .00000660  00000+0  26626-3 0  9995
2 66043  88.9933  52.6948 0016712 125.0226 235.2539 14.26731574 19560
QIANFAN-102             
1 66044U 25233M   26062.56477475  .00000033  00000+0  32170-4 0  9998
2 66044  88.9930  53.7776 0002072  88.8094 271.3295 13.50992341 18973
